{"type":"FeatureCollection","features":[{"type":"Feature","properties":{"state":"New South Wales","code":"NSW"},"geometry":{"type":"Polygon","coordinates":[[[153.533935546875,-28.175533484417052],[153.61358642578125,-28.300753315557927],[153.63418579101562,-28.87233688225592],[153.35540771484375,-29.31394375890849],[153.39523315429688,-29.514915317540922],[153.24691772460926,-30.17718614207549],[153.02169799804688,-30.717045911671004],[153.11508178710938,-30.91282922665619],[152.95852661132812,-31.489577718501927],[152.79098510742188,-31.85889704445453],[152.57675170898438,-32.03951245042538],[152.55340576171875,-32.45415593941475],[152.21969604492188,-32.6659686609434],[152.21969604492188,-32.7537875018279],[151.76376342773438,-32.97410795968922],[151.36550903320307,-33.56085101825269],[151.23916625976557,-34.051521610164926],[150.94940185546875,-34.327560157052524],[150.88211059570318,-34.75853788866993],[150.78323364257812,-34.85438288509789],[150.87249755859375,-35.05360791102559],[150.69671630859375,-35.04798673426733],[150.77224731445312,-35.17942082175205],[150.49072265625,-35.318486875313205],[150.435791015625,-35.548988008394254],[150.18173217773432,-35.896837733825244],[150.16113281249994,-36.319551259461186],[149.94415283203125,-36.927938997766766],[149.93728637695307,-37.0869533639967],[150.07049560546875,-37.27733111863006],[149.97985839843756,-37.27514559539256],[149.98466491699213,-37.508636471899976],[148.11767578125,-36.804886560237],[148.21517944336,-36.591273656342],[148.03939819336,-36.385912772877],[148.0339050293,-36.144528857028],[147.91168212891,-35.999118541418],[147.39944458008,-35.944659373653],[147.31704711914,-36.05909123754],[147.12341308594,-35.996896453738],[146.94145202636997,-36.116244870508],[146.61254882813,-35.973560753496],[146.18682861328,-36.039105412048],[145.79956054688,-35.984673852438],[145.54000854492,-35.806676609227],[145.12252807617,-35.822267341145],[144.96597290039,-35.862343734896],[144.98794555664,-36.062421715109],[144.78057861328,-36.129001655697],[143.96759033203,-35.502046196331],[143.62083435058997,-35.388490185122],[143.57894897461,-35.211965701039],[143.38943481445,-35.189522351973],[143.35098266602,-34.794633792211],[142.87651062011997,-34.673876265883],[142.79067993164,-34.55181136917],[142.69866943359,-34.723554927042],[142.55584716797,-34.774331789488],[142.3649597168,-34.529187069549],[142.39379882812,-34.336632474377],[142.23037719727,-34.304875071907],[142.21801757812,-34.182269739746],[142.03536987305,-34.102707993175],[141.73049926758,-34.091335914867],[141.51901245117,-34.212937813334],[141.0029416322193,-34.021867145197824],[140.99921190631244,-28.999215283765487],[148.95812988281244,-28.999732931519468],[149.50298309326166,-28.574572543440212],[149.89608764648438,-28.623103554529894],[150.29090881347656,-28.536877739533452],[150.44677734375,-28.667696132492935],[150.73516845703125,-28.63395214251842],[151.0263061523437,-28.748396571187392],[151.0455322265625,-28.84467368077178],[151.2789916992187,-28.94326532940748],[151.30783081054682,-29.15935704135541],[151.39572143554688,-29.177344230436756],[151.71089172363287,-28.87293817444906],[151.77715301513672,-28.9600886880068],[152.00340270996094,-28.911413635329154],[152.07618713378895,-28.70775301170924],[151.955337524414,-28.518779441142197],[152.38792419433594,-28.36723539252298],[152.46414184570312,-28.257820081179705],[152.58018493652344,-28.340647553430898],[152.61383056640625,-28.271125187339013],[152.74154663085938,-28.362401735238222],[153.1102752685547,-28.358776347798702],[153.18031311035156,-28.24572308883739],[153.533935546875,-28.175533484417052]]]}},{"type":"Feature","properties":{"state":"Victoria","code":"VIC"},"geometry":{"type":"Polygon","coordinates":[[[140.98119735717773,-34.0015851137466],[141.51901245117,-34.212937813334],[141.73049926758,-34.091335914867],[142.03536987305,-34.102707993175],[142.21801757812,-34.182269739746],[142.23037719727,-34.304875071907],[142.39379882812,-34.336632474377],[142.3649597168,-34.529187069549],[142.55584716797,-34.774331789488],[142.69866943359,-34.723554927042],[142.79067993164,-34.55181136917],[142.87651062011997,-34.673876265883],[143.35098266602,-34.794633792211],[143.38943481445,-35.189522351973],[143.57894897461,-35.211965701039],[143.62083435058997,-35.388490185122],[143.96759033203,-35.502046196331],[144.78057861328,-36.129001655697],[144.98794555664,-36.062421715109],[144.96597290039,-35.862343734896],[145.12252807617,-35.822267341145],[145.54000854492,-35.806676609227],[145.79956054688,-35.984673852438],[146.18682861328,-36.039105412048],[146.61254882813,-35.973560753496],[146.94145202636997,-36.116244870508],[147.12341308594,-35.996896453738],[147.31704711914,-36.05909123754],[147.39944458008,-35.944659373653],[147.91168212891,-35.999118541418],[148.0339050293,-36.144528857028],[148.03939819336,-36.385912772877],[148.21517944336,-36.591273656342],[148.11767578125,-36.804886560237],[149.98466491699213,-37.508636471899976],[149.51156616210943,-37.785910776551354],[148.42254638671875,-37.820632846207864],[147.8759765625,-37.94419750075404],[146.83364868164062,-38.69730051540361],[146.4971923828125,-38.80225962384822],[146.48620605468756,-39.079974145329246],[146.30081176757812,-39.17372330074073],[146.20468139648443,-38.917750031530694],[146.0687255859375,-38.836498557558784],[145.9066772460937,-38.93163900447185],[145.7803344726562,-38.708017697527296],[145.08270263671875,-38.53527591154413],[145.23376464843744,-38.42992513040935],[144.86846923828125,-38.51486279448152],[144.6597290039062,-38.33088431959969],[144.95498657226557,-38.310413348820774],[145.0936889648437,-38.11727165830541],[144.9481201171875,-37.87268533717655],[144.38644409179682,-38.10862766432127],[144.7201538085937,-38.11078875872391],[144.70916748046875,-38.26729767624644],[144.4070434570312,-38.31472350724733],[143.53775024414062,-38.87179021382535],[142.34024047851568,-38.37288556789895],[142.1356201171875,-38.412710382847074],[141.74148559570312,-38.272688535980954],[141.56021118164062,-38.441757889396904],[141.34597778320312,-38.396567831263106],[141.25808715820307,-38.220919766831194],[140.965576171875,-38.074041459419554],[140.98119735717773,-34.0015851137466]]]}},{"type":"Feature","properties":{"state":"Queensland","code":"QLD"},"geometry":{"type":"MultiPolygon","coordinates":[[[[139.74609374999994,-16.470328646858505],[139.51263427734375,-16.534847967269393],[139.44259643554688,-16.726961081010618],[139.19403076171875,-16.741427547003596],[139.1665649414062,-16.838718812281112],[139.0402221679687,-16.882089360580334],[139.28741455078125,-16.453207666510313],[139.6115112304687,-16.383391123608387],[139.74609374999994,-16.470328646858505]]],[[[142.28942871093744,-10.659258362326325],[142.64511108398432,-10.705141105125772],[142.58880615234375,-10.84679384413793],[142.82501220703125,-11.10025160083937],[142.877197265625,-11.824341483849048],[143.30978393554688,-11.978874942482795],[143.19992065429682,-12.005741334833488],[143.09555053710938,-12.31853594166211],[143.45809936523432,-12.597454504832005],[143.37844848632807,-12.845276619410976],[143.56246948242182,-12.822513897983285],[143.52264404296875,-13.134316388511602],[143.61877441406256,-13.42969511218854],[143.55285644531256,-13.755392488822052],[143.78356933593744,-14.377485475623583],[144.019775390625,-14.455958231194025],[144.1708374023437,-14.336242974455645],[144.2202758789062,-14.109940039530533],[144.35485839843744,-14.287008121596337],[144.4894409179688,-14.145897379244564],[144.66659545898438,-14.341565014343121],[144.700927734375,-14.530415228007362],[144.93576049804682,-14.580925348237573],[144.9728393554687,-14.721760679027714],[145.3628540039063,-14.931516073431656],[145.2557373046875,-15.17420475166356],[145.38482666015625,-15.28153566131825],[145.26535034179682,-15.435148417952398],[145.49880981445307,-16.040534227979762],[145.52215576171875,-16.32804703184378],[145.42190551757812,-16.434767997861286],[145.80642700195307,-16.88603164410671],[145.92041015624994,-16.840033217452664],[146.019287109375,-16.924136137319657],[145.90805053710938,-17.044968260800225],[146.03027343749994,-17.147351748174778],[146.19781494140625,-17.687203576173044],[146.11953735351557,-17.912102566653026],[146.22665405273438,-18.057089766648634],[146.11541748046875,-17.98787650233009],[146.019287109375,-18.16281585556785],[146.32553100585932,-18.22413378742241],[146.37222290039057,-18.428804841695058],[146.28158569335938,-18.8465125517047],[146.90505981445312,-19.28133206259372],[147.0574951171875,-19.189271694646724],[147.13165283203125,-19.37852275617938],[147.4310302734375,-19.407021044033193],[147.392578125,-19.283924564443133],[147.65762329101562,-19.78350351819808],[147.7386474609375,-19.815806165386956],[147.74688720703125,-19.680091061399885],[147.84988403320312,-19.698193071745962],[147.89794921874994,-19.85197734058912],[148.24951171875,-19.94753287798934],[148.37997436523432,-20.139759639660163],[148.46511840820312,-19.959150559427233],[148.67111206054688,-20.077859941822016],[148.71231079101562,-20.22612029583698],[148.83590698242188,-20.202923627504823],[148.95263671875,-20.536363350380938],[148.7905883789062,-20.48620043009848],[148.68484497070307,-20.58136735381001],[149.26162719726568,-21.06912308335471],[149.22866821289062,-21.236902399759177],[149.5074462890625,-21.53612442416755],[149.44839477539068,-21.792657375682797],[149.51705932617188,-21.810508315752152],[149.48272705078125,-21.879341082799026],[149.54040527343756,-22.0818222813564],[149.63516235351568,-22.28528432272795],[149.95925903320312,-22.50113872030024],[149.8040771484375,-21.96597215680026],[150.53878784179688,-22.52270570348246],[150.3863525390625,-22.22046279807356],[150.24490356445307,-22.226819175812444],[150.48248291015625,-22.189948175955884],[150.699462890625,-22.33991442556202],[150.8642578125,-22.68371708489949],[150.7681274414062,-23.11383850811712],[150.87249755859375,-23.526218362216586],[150.98373413085932,-23.54006816942601],[151.02905273437494,-23.43048899388296],[151.23504638671875,-23.46828520085324],[151.41632080078125,-23.956136333969273],[151.79534912109375,-24.01887060790727],[152.0892333984375,-24.54337560526345],[152.39959716796875,-24.723132683796276],[152.666015625,-25.191272441615986],[152.92282104492188,-25.272019833438236],[152.97637939453125,-25.42095079832668],[152.97500610351562,-25.21985072545474],[153.20159912109375,-24.99352638748893],[153.10684204101562,-24.779253660568532],[153.2867431640625,-24.684456833487154],[153.39248657226562,-25.030861410390447],[153.10409545898438,-25.661333498952683],[153.11233520507812,-25.880229968183283],[153.2098388671875,-25.928407032694118],[153.07937622070312,-26.336499228484016],[153.23455810546875,-27.075023231426048],[153.07388305664062,-27.16547342337482],[153.13980102539062,-27.33273513685913],[153.26614379882812,-27.311993707090966],[153.2812499999999,-27.485126363846177],[153.38699340820312,-27.5801118456095],[153.40896606445312,-27.388839545525894],[153.5614013671875,-27.412004805752012],[153.44329833984375,-27.944673062577397],[153.5614013671875,-28.159189634046722],[153.18031311035156,-28.24572308883739],[153.1102752685547,-28.358776347798702],[152.74154663085938,-28.362401735238222],[152.61383056640625,-28.271125187339013],[152.58018493652344,-28.340647553430898],[152.46414184570312,-28.257820081179705],[152.38792419433594,-28.36723539252298],[151.955337524414,-28.518779441142197],[152.07618713378895,-28.70775301170924],[152.00340270996094,-28.911413635329154],[151.77715301513672,-28.9600886880068],[151.71089172363287,-28.87293817444906],[151.39572143554688,-29.177344230436756],[151.30783081054682,-29.15935704135541],[151.2789916992187,-28.94326532940748],[151.0455322265625,-28.84467368077178],[151.0263061523437,-28.748396571187392],[150.73516845703125,-28.63395214251842],[150.44677734375,-28.667696132492935],[150.29090881347656,-28.536877739533452],[149.89608764648438,-28.623103554529894],[149.50298309326166,-28.574572543440212],[148.95812988281244,-28.999732931519468],[140.99921190631244,-28.999215283765487],[140.99990844726562,-26.001252855805983],[137.99899731236752,-25.996538158657362],[138.00476074218756,-16.50456606887792],[138.19152832031256,-16.67960861220424],[139.00314331054688,-16.86237670846054],[139.16519165039062,-17.004261786290357],[139.27780151367182,-17.319176407442836],[139.99328613281244,-17.689820306458042],[140.26107788085932,-17.67411935318314],[140.7733154296875,-17.458092664041494],[140.96969604492188,-16.91099752698602],[141.26220703125,-16.474279427591664],[141.470947265625,-15.440443388746441],[141.64947509765625,-14.99652535898283],[141.50527954101557,-14.478563891146559],[141.55471801757812,-14.08596532711486],[141.44210815429682,-13.788737726659166],[141.66320800781244,-13.277372689908304],[141.57669067382807,-12.912213836789748],[141.78543090820312,-12.660437612933826],[141.55746459960938,-12.561265715616111],[141.9241333007812,-11.917072104696121],[142.10128784179688,-11.31848056989431],[142.07931518554682,-10.951978221389611],[142.3471069335937,-10.80363055270312],[142.34161376953125,-10.74022322383834],[142.10815429687494,-10.746969318459989],[142.14248657226557,-10.525619323394576],[142.3333740234375,-10.491862900551812],[142.28942871093744,-10.659258362326325]]]]}},{"type":"Feature","properties":{"state":"South Australia","code":"SA"},"geometry":{"type":"MultiPolygon","coordinates":[[[[137.6174926757812,-35.70972275209279],[138.05969238281244,-35.72644736208901],[138.15444946289057,-35.84787403967153],[138.05419921874994,-35.92686865304136],[137.65457153320307,-35.909073928771534],[137.4774169921875,-36.09127994838078],[137.22335815429693,-36.00578442879993],[136.69052124023438,-36.101266869214456],[136.50375366210938,-35.87681078903906],[136.57104492187506,-35.73648044300146],[137.32223510742188,-35.55680897384459],[137.64495849609375,-35.54228371647727],[137.6174926757812,-35.70972275209279]]],[[[140.99990844726562,-26.001252855805983],[140.965576171875,-38.074041459419554],[140.72250366210938,-38.080527619362734],[140.38192749023432,-37.92578434712101],[139.7488403320313,-37.217206113254974],[139.64584350585932,-36.94440418245901],[139.8037719726562,-36.86314143295289],[139.8394775390625,-36.64307970866717],[139.42611694335938,-35.96911507577482],[138.82598876953125,-35.554574490143125],[138.53073120117182,-35.65729624809628],[138.05557250976562,-35.61488368245436],[138.42773437499994,-35.33305256126512],[138.47854614257812,-35.008627666205555],[138.46893310546875,-34.73596993148604],[138.09127807617182,-34.161818161230386],[137.75344848632812,-35.169318036011305],[137.42385864257812,-35.13114062861361],[136.81411743164062,-35.296073003975465],[136.78253173828125,-35.20972164522138],[137.00500488281256,-34.86452465161482],[137.4169921875,-34.884804432927844],[137.4609375,-34.47146728120383],[137.36068725585938,-34.55407346090554],[137.3153686523438,-34.47712785074852],[137.4664306640625,-34.34910530860308],[137.4307250976562,-34.10839345928985],[137.91275024414062,-33.5230788089042],[137.779541015625,-33.26624989076273],[138.01025390625,-33.06392419812064],[137.78640747070318,-32.617400127757456],[137.80014038085938,-33.00751186140884],[137.65045166015625,-32.97641208290518],[137.47329711914068,-33.15709799197016],[137.2329711914062,-33.678639851675534],[136.61911010742188,-33.91601311340168],[136.14395141601557,-34.37064492478657],[136.13159179687506,-34.53371242139564],[135.97640991210943,-34.538237527295756],[135.95993041992182,-34.70436443445847],[136.06018066406244,-34.93323032184192],[136.20574951171875,-35.0030033952767],[136.16729736328125,-35.081707990840705],[136.07391357421875,-34.97937723550951],[135.95306396484375,-35.04348951431468],[135.77865600585932,-34.87579181441272],[135.61935424804688,-35.02099970111467],[135.46279907226557,-34.77433178948767],[135.27603149414057,-34.71791112677534],[135.3103637695312,-34.61625687562894],[135.08651733398432,-34.59025856296577],[135.2197265625,-34.40577662146838],[135.24169921874994,-34.49297540250153],[135.36117553710938,-34.4601449902318],[135.23620605468744,-34.01396527491263],[134.72808837890625,-33.59631896113268],[134.82559204101562,-33.5665726400041],[134.75692749023438,-33.31790588151775],[134.4259643554687,-33.16514540824028],[134.30786132812494,-33.20881849225545],[134.1128540039062,-33.02133046690857],[134.17602539062494,-32.94645379269271],[134.044189453125,-32.92686018886496],[134.10598754882818,-32.84382741262934],[134.0386962890625,-32.724909267071695],[134.22683715820307,-32.711044390782945],[134.21859741210932,-32.53870947735257],[133.83270263671875,-32.55260108010647],[133.7393188476562,-32.35792323814947],[133.90823364257807,-32.373002604986546],[133.70223999023438,-32.22209584050232],[133.47976684570318,-32.31499127724555],[133.6651611328125,-32.17328768712742],[133.60061645507807,-32.11049589629438],[133.48800659179688,-32.224419385153006],[133.1350708007812,-32.21977223646089],[132.74780273437494,-31.971968910549975],[132.15866088867182,-32.026706293336126],[131.1492919921875,-31.487235582017444],[130.8279418945312,-31.61947427549924],[129.00146484374994,-31.709476360019337],[129.00146484374994,-25.992612489709188],[140.99990844726562,-26.001252855805983]]]]}},{"type":"Feature","properties":{"state":"Western Australia","code":"WA"},"geometry":{"type":"Polygon","coordinates":[[[127.2134399414063,-13.891411092746115],[127.4441528320312,-13.924736835233924],[127.97012329101557,-14.531744589750675],[128.24203491210943,-14.709806482462536],[128.17611694335932,-15.070797492889033],[128.37387084960938,-14.788160935882845],[129.00558471679688,-14.854540884509133],[129.00146484374994,-31.709476360019337],[127.56774902343744,-32.21977223646089],[126.9195556640625,-32.33587963983593],[126.17523193359375,-32.27087780256757],[125.92803955078125,-32.33587963983593],[124.8843383789062,-32.893425789692316],[124.3350219726562,-33.006360213205376],[123.7884521484375,-33.82251188219802],[123.39843749999994,-33.9479168983564],[123.15124511718744,-34.18908583117239],[122.8106689453125,-34.04810808490983],[122.431640625,-34.04128062212254],[122.02514648437494,-34.21861586197445],[121.90979003906256,-34.12999474582475],[121.9125366210938,-33.97753113740941],[121.541748046875,-33.88637747072754],[120.09155273437494,-33.975253485075896],[119.64111328125,-34.15727269301866],[119.54223632812506,-34.31848685867645],[119.65759277343744,-34.37517887533528],[119.21813964843744,-34.56538299699511],[118.80889892578125,-34.56312121279481],[118.4271240234375,-34.85438288509789],[118.53698730468744,-34.921971036163754],[118.48480224609375,-34.98050244536519],[118.2266235351562,-34.97150033361732],[117.89154052734375,-35.20298910562885],[117.71850585937494,-35.081707990840705],[117.5811767578125,-35.169318036011305],[117.24334716796875,-35.05698043137263],[116.4688110351562,-35.05248370662468],[115.9689331054687,-34.863397850419524],[115.38116455078125,-34.361576287484176],[115.0405883789062,-34.35023911062778],[114.93072509765625,-33.975253485075896],[114.95819091796875,-33.532237223959065],[115.3427124023437,-33.61690656060315],[115.56243896484375,-33.39934533042092],[115.62286376953125,-33.19732768648872],[115.565185546875,-32.664812573810586],[115.7025146484375,-32.424021792657385],[115.61462402343756,-32.136082956202074],[115.6915283203125,-31.763202209896075],[115.0048828125,-30.436834045442215],[114.90600585937494,-30.054831224852435],[114.95269775390625,-29.47786119581683],[114.82635498046875,-29.176145182559758],[114.56268310546875,-28.86872905602898],[114.5654296875,-28.623103554529894],[114.1561889648437,-28.134971934813155],[114.0353393554687,-27.461976448778174],[113.70574951171875,-26.892679095908154],[113.07403564453125,-26.150507192328902],[112.884521484375,-25.530050090109015],[113.0355834960937,-25.458154856592074],[113.34182739257812,-26.1813211253597],[113.38165283203125,-25.996315581557397],[113.68515014648438,-26.578702269100557],[113.84994506835938,-26.492698651939385],[113.85269165039062,-26.38694892873412],[113.53408813476562,-26.091321632191118],[113.40087890625,-25.739292066931647],[113.51898193359375,-25.474273045275023],[113.7744140625,-25.870345062382327],[113.7332153320312,-26.170229047478472],[113.84994506835938,-25.922231585619894],[113.93234252929688,-25.954340376169696],[113.99688720703125,-26.335268473041793],[114.0875244140625,-26.420159873864502],[114.21112060546875,-26.28725880745812],[114.2330932617187,-25.886407614212853],[113.66455078124994,-25.09057381946099],[113.60824584960938,-24.77052539567318],[113.37066650390625,-24.35085004910507],[113.45443725585932,-23.868257066593763],[113.73733520507812,-23.49095773149582],[113.7991333007812,-23.022867960949082],[113.62060546875,-22.562025064735256],[113.92822265625006,-21.912470952680252],[114.19876098632807,-21.777354799786686],[114.1067504882812,-22.167057857886153],[114.2138671875,-22.34118463864063],[114.1864013671875,-22.490988387798865],[114.28115844726562,-22.41356763836979],[114.34432983398438,-22.479568373763758],[114.4857788085937,-21.996535232496036],[114.63958740234375,-21.821982745033807],[115.3536987304687,-21.541234000243442],[115.7986450195313,-21.224101526391543],[115.91812133789062,-21.03580079622199],[116.12411499023432,-20.971698530475724],[116.180419921875,-20.802336592979042],[116.46469116210938,-20.776659051878816],[116.6006469726562,-20.657201194347376],[116.41525268554688,-20.67133552726678],[116.53747558593744,-20.455322780346737],[116.65145874023438,-20.439881626957035],[116.58828735351562,-20.551794787820242],[116.69952392578125,-20.48748686400009],[116.70089721679682,-20.621216961632136],[116.82449340820307,-20.335613320254225],[116.99478149414057,-20.428299743981885],[116.90551757812494,-20.437307950568957],[116.84371948242188,-20.694461597907782],[117.17330932617188,-20.536363350380938],[117.33123779296875,-20.711161567627354],[117.53723144531244,-20.69189220854608],[117.84347534179688,-20.586509823997716],[118.18405151367182,-20.31114512181744],[118.79928588867188,-20.24673665224419],[119.07669067382818,-19.94624197170976],[119.58618164062494,-20.050771131126798],[119.75784301757818,-19.93333232847115],[120.75210571289057,-19.703364698733452],[121.1599731445312,-19.471771302105118],[121.42364501953125,-19.175004207196388],[121.7999267578125,-18.436621852843608],[122.354736328125,-18.10278170663561],[122.35061645507812,-18.007467921352987],[122.14599609374994,-17.963057582388025],[122.15698242187494,-17.25099033566006],[122.37396240234375,-16.94646967073926],[122.52914428710938,-16.900485979120973],[122.55523681640625,-16.74668780774875],[122.728271484375,-16.737482256106958],[122.9205322265625,-16.367580127215785],[123.25149536132818,-16.37153299650259],[123.00567626953125,-16.58618467276904],[123.14575195312494,-16.673030952138866],[123.17733764648432,-16.900485979120973],[123.53851318359375,-17.399131667916368],[123.55499267578125,-16.99506877677603],[123.80218505859375,-17.11191767978648],[123.83102416992188,-16.929391324813995],[123.69232177734375,-16.780875958772825],[123.46435546874994,-16.675662043309767],[123.42315673828125,-16.54801252874236],[123.41903686523432,-16.615137799987075],[123.29681396484375,-16.575655181910115],[123.3407592773437,-16.409739933377747],[123.56735229492193,-16.482180747358992],[123.2501220703125,-16.314867556423398],[123.44650268554688,-16.251593732779515],[123.26248168945312,-16.12234648562877],[123.37646484375,-16.102556286933392],[123.26110839843744,-16.024695711685304],[123.475341796875,-16.128942779591753],[123.5577392578125,-16.008855937788685],[123.99444580078125,-16.206762442296196],[124.04525756835932,-16.040534227979762],[124.0878295898437,-16.197531203968442],[124.31167602539068,-16.387343672334833],[124.41604614257807,-16.139496393128496],[124.35012817382812,-15.670643235196232],[124.45312499999994,-15.411319377980993],[124.15237426757812,-15.32789624706292],[124.39956665039062,-15.18745844029979],[124.75387573242188,-15.259013961876637],[124.925537109375,-15.081405684819757],[124.62066650390625,-14.943458031818214],[124.71267700195312,-14.83330151553516],[124.7991943359375,-14.851886077521893],[124.80331420898432,-14.967339955323157],[124.94750976562494,-14.878432678599394],[124.99969482421875,-15.050905707724771],[125.057373046875,-14.960706354429746],[125.20431518554688,-15.0456009179285],[125.12054443359375,-14.922227424640933],[125.14938354492188,-14.71113475887066],[125.03677368164062,-14.632752640484222],[125.15899658203125,-14.421380422198462],[125.28671264648432,-14.406749732817115],[125.29220581054682,-14.523768299391287],[125.52017211914062,-14.408079835161619],[125.56823730468744,-14.479893564168469],[125.55450439453125,-14.245749000772152],[125.72479248046875,-14.071312874397545],[125.84289550781256,-14.253735226496016],[125.69046020507812,-14.192500280173403],[125.78384399414062,-14.342895504568698],[125.68359375,-14.422710437246598],[125.86349487304682,-14.44797921378886],[125.8758544921875,-14.553013289888913],[125.99945068359375,-14.507814855804643],[125.92254638671875,-14.302977364378801],[126.12579345703125,-14.173860268306598],[125.9664916992188,-14.061988097202269],[126.0049438476562,-13.907408048156961],[126.18484497070318,-13.904741965684956],[126.26174926757812,-14.119262858077873],[126.34140014648438,-13.978048024053313],[126.617431640625,-13.834079606106055],[126.52542114257812,-14.044669645487179],[126.59957885742182,-14.163208145157155],[126.69433593749994,-13.908741077874083],[126.79046630859375,-13.93673292677543],[126.7135620117188,-13.783402808332157],[126.78085327148438,-13.7140377964387],[126.98410034179682,-13.726044748874735],[127.2134399414063,-13.891411092746115]]]}},{"type":"Feature","properties":{"state":"Tasmania","code":"TAS"},"geometry":{"type":"MultiPolygon","coordinates":[[[[144.97558593749994,-40.377936122224135],[144.81353759765625,-40.524238780698646],[144.86846923828125,-40.6473035625225],[144.9371337890625,-40.547200234410475],[145.14312744140625,-40.768061709366116],[145.29968261718756,-40.6868863821511],[145.39306640625,-40.80757278825516],[146.2445068359375,-41.11867648776222],[147.43927001953125,-40.94878817919348],[147.64251708984375,-40.76390128094587],[147.82928466796875,-40.83043687764923],[147.89520263671875,-40.71395582628604],[148.21105957031244,-40.72644570551444],[148.39782714843744,-41.02135510866601],[148.40332031249994,-42.10433598038486],[148.326416015625,-42.395065515651225],[148.2247924804687,-42.36057345238456],[148.18084716796875,-42.12674735753131],[148.062744140625,-42.27121191118534],[148.02429199218744,-42.54093947168063],[148.1478881835937,-42.57937729240967],[148.17535400390625,-42.696567309696974],[147.91992187500006,-42.81152174509788],[148.02978515624994,-42.900112655253274],[148.04626464843756,-43.23719944365307],[147.74139404296875,-43.24520272203356],[147.58483886718744,-43.05885460643447],[147.57797241210943,-42.87193842444846],[147.5072479248047,-43.078919299859656],[147.385025024414,-43.078919299859656],[147.43927001953125,-43.26070608211924],[147.33833312988276,-43.310190384335584],[147.4008178710937,-43.39806307790159],[147.30743408203125,-43.546557380511516],[147.10830688476562,-43.50274467820439],[147.08702087402344,-43.38459087060759],[147.15499877929688,-43.440456027775525],[147.2305297851562,-43.29969707790874],[147.09045410156244,-43.25870587032838],[146.86180114746088,-43.64949133795468],[146.55075073242188,-43.537598280094535],[146.29257202148438,-43.552031730911764],[146.2606430053711,-43.499756289780436],[146.02375030517578,-43.5756652619922],[145.9870147705078,-43.41751764583171],[145.91285705566406,-43.41926326305218],[145.9622955322265,-43.23995068917737],[145.80711364746088,-43.31343794542708],[145.21728515624994,-42.61374895431491],[145.13214111328125,-42.3037216984154],[145.22827148437494,-42.153223312398566],[144.7119140625,-41.413895564677304],[144.55810546875,-40.99233791931229],[144.68170166015625,-40.84706035607121],[144.635009765625,-40.57432635193038],[144.73388671874994,-40.39467254512294],[144.97558593749994,-40.377936122224135]]],[[[144.12139892578125,-39.737818337927045],[144.13307189941406,-40.01709786313761],[143.91197204589844,-40.175725518346916],[143.8165283203125,-39.65857056750545],[143.95111083984375,-39.56229445915817],[144.12139892578125,-39.737818337927045]]],[[[148.15750122070312,-39.902362098539705],[148.40744018554688,-39.94448932676473],[148.31268310546875,-39.973962962407036],[148.3566284179688,-40.212440718286466],[148.27697753906244,-40.23970199781758],[148.50906372070307,-40.43126897044753],[148.36212158203125,-40.526326510744],[148.26736450195312,-40.460531779303444],[148.18359375,-40.60665466305048],[148.07785034179693,-40.52006312552014],[148.19183349609375,-40.465755940184344],[148.06137084960932,-40.50231368920858],[147.9611206054687,-40.413496049701955],[148.08197021484375,-40.30571266770938],[147.9830932617188,-40.10853775498617],[147.82928466796875,-40.0360265298117],[147.84851074218744,-39.921322558846626],[147.74551391601557,-39.965543219966044],[147.7386474609375,-39.85282948915942],[148.00094604492182,-39.62473049524288],[147.98995971679682,-39.74415422820841],[148.15750122070312,-39.902362098539705]]]]}},{"type":"Feature","properties":{"state":"Northern Territory","code":"NT"},"geometry":{"type":"MultiPolygon","coordinates":[[[[132.68325805664062,-11.17570738648079],[132.5994873046875,-11.377724055174113],[132.6956176757812,-11.497519728936439],[132.91397094726557,-11.314440794084847],[133.19274902343744,-11.69392794890226],[133.29849243164062,-11.681824597858492],[133.38638305664062,-11.458490752653873],[133.47152709960932,-11.447723189292294],[133.44406127929688,-11.755781245611418],[133.94119262695312,-11.72351168932304],[133.92059326171875,-11.887509246993284],[134.09225463867182,-11.852567184656172],[134.47952270507818,-12.059466077479954],[134.769287109375,-11.931852326960579],[135.00411987304688,-12.031261926409883],[135.076904296875,-12.229970601688173],[135.45318603515625,-12.089010102234289],[136.13983154296875,-11.525778716699989],[135.70175170898438,-12.243391505623274],[136.04782104492188,-12.039320557540572],[136.03683471679693,-12.41511858500638],[136.20986938476557,-12.431212216060944],[136.329345703125,-12.233996944452649],[136.10137939453125,-12.209837968290277],[136.22772216796875,-12.071552663274494],[136.08489990234375,-12.055437094469546],[136.26754760742182,-11.909009826046102],[136.34307861328125,-12.000368270487343],[136.39663696289057,-11.82030900306308],[136.55319213867188,-11.727545590340435],[136.64932250976557,-11.736957796739683],[136.51336669921875,-11.833750374590892],[136.5023803710937,-11.903634840679052],[136.7330932617187,-11.792079975540565],[136.54907226562494,-11.968127636740334],[136.67129516601562,-12.259495689846283],[136.8154907226562,-12.056780095530367],[136.9912719726562,-12.3386602673479],[136.72210693359375,-12.754213396303387],[136.6424560546875,-12.731442461309456],[136.74819946289062,-12.912213836789748],[136.53396606445307,-12.837242952998391],[136.68640136718744,-13.003219672653879],[136.48315429687494,-13.253313014308297],[136.3046264648437,-13.328157505129283],[136.34307861328125,-13.132979019087472],[136.17965698242188,-13.2974205987597],[136.12472534179688,-13.202512555455915],[136.10549926757812,-13.325484885597936],[136.01898193359375,-13.257323125615729],[135.89401245117182,-13.346865014577924],[135.98876953124994,-13.402978840988784],[135.88577270507812,-13.45240160439987],[135.91049194335932,-13.707367001939154],[136.10687255859375,-13.662000579724483],[135.90362548828125,-14.21513251850898],[135.42297363281244,-14.757619334998166],[135.5218505859375,-14.981933154458378],[136.25244140624994,-15.387487605815425],[136.41036987304693,-15.605842909610057],[136.4968872070312,-15.505295799756198],[136.74270629882812,-15.595261318100974],[136.94732666015625,-15.470886846716144],[136.9253540039062,-15.586001978047433],[137.098388671875,-15.628326978852627],[137.1066284179687,-15.833214557200758],[136.8841552734375,-15.735423007543087],[136.7138671875,-15.784324680021353],[136.73446655273438,-15.872846316558126],[136.95556640625,-15.838499241437994],[137.40463256835932,-16.121027200491078],[137.71774291992182,-16.204124989730662],[138.00476074218756,-16.50456606887792],[137.99899731236752,-25.996538158657362],[129.00060056171867,-25.99862663015691],[129.00558471679688,-14.854540884509133],[129.20333862304688,-14.987239525774244],[129.19921874999994,-14.831973985706485],[129.51919555664062,-14.95009216614806],[129.48211669921875,-14.781521822699277],[129.671630859375,-14.818698239544416],[129.48623657226557,-14.475904521198986],[129.32968139648438,-14.437340078585574],[129.34478759765625,-14.321606713432729],[129.45739746093756,-14.03800835372791],[129.71832275390625,-13.986043638716545],[129.79934692382818,-13.485789593908478],[129.90371704101557,-13.410994034321702],[129.97787475585932,-13.507155459536333],[130.17288208007807,-13.394963380464134],[130.17837524414068,-13.233261466546951],[129.9737548828125,-13.178445489112166],[129.99572753906244,-13.08616650573325],[130.06713867187494,-13.120942366607927],[130.13717651367188,-12.894811880984795],[130.3335571289063,-12.847954451145426],[130.41046142578125,-12.49691752206226],[130.462646484375,-12.601475166388832],[130.56152343749994,-12.395000146821177],[130.78948974609375,-12.427188901663948],[130.98175048828125,-12.306460605137392],[130.9735107421875,-12.0473789469445],[131.04354858398432,-12.00842782682728],[131.22207641601557,-12.187019133226132],[131.32095336914062,-12.017830337768213],[131.40472412109375,-12.242049445914912],[131.59423828125,-12.258153712042164],[131.89086914062506,-12.178964957906539],[132.04605102539068,-12.263521582276313],[132.30422973632812,-12.177622571591876],[132.36190795898438,-12.055437094469546],[132.4484252929687,-12.117208173460048],[132.60360717773432,-12.056780095530367],[132.6242065429687,-11.861975103494535],[132.42919921874994,-11.614574146281976],[132.50610351562494,-11.56883456448188],[132.4539184570313,-11.494828248791528],[132.220458984375,-11.485407865844378],[132.11608886718744,-11.653581390435415],[131.89224243164062,-11.33733210289208],[131.73843383789062,-11.29020094309357],[131.87301635742188,-11.158192609513414],[131.95129394531256,-11.22016322020345],[131.95541381835938,-11.106989519283017],[132.14630126953125,-11.248449735768261],[132.12844848632812,-11.108337084308143],[132.36053466796875,-11.11237974204342],[132.48275756835943,-11.221510260010541],[132.4484252929687,-11.000512279195735],[132.55691528320312,-10.95871953933339],[132.62557983398438,-10.956023030580504],[132.68325805664062,-11.17570738648079]]],[[[130.32531738281244,-11.102946786877565],[130.67825317382812,-11.401956477722203],[130.8938598632813,-11.29020094309357],[131.01608276367188,-11.349450289004926],[131.2811279296875,-11.183790773046617],[131.4486694335937,-11.271346309881599],[131.55303955078125,-11.469257905863245],[131.48025512695307,-11.615919314641701],[131.39236450195312,-11.601122105790122],[130.97763061523432,-11.956036406986875],[130.6768798828125,-11.801489974355638],[130.03005981445307,-11.833750374590892],[130.0698852539062,-11.65492637024374],[130.1852416992187,-11.653581390435415],[130.12756347656244,-11.471949630036582],[130.23330688476557,-11.329253026617318],[130.37887573242188,-11.309054337689677],[130.32531738281244,-11.102946786877565]]],[[[136.75643920898438,-13.758060282838608],[136.9418334960938,-13.811409769012174],[136.7330932617187,-14.115267411122709],[136.80862426757812,-14.08463332479551],[136.8704223632812,-14.19383165093469],[136.99813842773438,-14.148560659841657],[136.96517944335932,-14.364182273341749],[136.31698608398438,-14.264383087562637],[136.41448974609375,-14.1126037408937],[136.38427734375006,-13.840746785080066],[136.5023803710937,-13.802074489043768],[136.46392822265625,-13.704698631091043],[136.69876098632812,-13.600608583816797],[136.75643920898438,-13.758060282838608]]],[[[136.71524047851557,-11.232286352218692],[136.47491455078125,-11.535197748080085],[135.95169067382807,-11.926477793848226],[136.768798828125,-10.985683274406306],[136.71524047851557,-11.232286352218692]]]]}},{"type":"Feature","properties":{"state":"Australian Capital Territory","code":"ACT"},"geometry":{"type":"Polygon","coordinates":[[[148.76,-35.12],[149.4,-35.12],[149.4,-35.92],[148.76,-35.92],[148.76,-35.12]]]}}]}